sat21827
1 21827U 91086D   20046.84493713  .00002976  00000-0  22179-3 0  9993
2 21827  82.4697  84.0328 0629123 258.7620 282.0182 14.11847165331677
